SKYSAT-C1               
1 41601U 16040C   26182.34940905  .00011479  00000+0  32382-3 0  9998
2 41601  96.9551 213.3028 0001956  27.0572 333.0775 15.36540688560041
LAPAN-A3                
1 41603U 16040E   26182.61530346  .00003891  00000+0  12354-3 0  9990
2 41603  97.1489 178.2877 0009072 333.8530  26.2254 15.33197935557023
GAOFEN-3                
1 41727U 16049A   26182.65335395 -.00000026  00000+0  51290-5 0  9999
2 41727  98.4005 190.2206 0001651  94.3638 265.7740 14.42217052520731
SKYSAT-C4               
1 41771U 16058B   26182.02929070  .00020906  00000+0  38714-3 0  9990
2 41771  96.9165 203.2248 0002509 137.9147 222.2298 15.49022400547614
SKYSAT-C5               
1 41772U 16058C   26182.05839470  .00009675  00000+0  29014-3 0  9991
2 41772  97.0459 222.0804 0001770 196.4961 163.6226 15.34666451545872
SKYSAT-C2               
1 41773U 16058D   26182.33922888  .00016375  00000+0  38067-3 0  9992
2 41773  97.0157 203.9032 0003293  37.7377 322.4102 15.42393028547235
SKYSAT-C3               
1 41774U 16058E   26182.44938039  .00026930  00000+0  43018-3 0  9990
2 41774  96.8999 212.7520 0001440 132.0836 228.0541 15.53152571548325
ALSAT-1B                
1 41785U 16059C   26182.58040928  .00000316  00000+0  57477-4 0  9994
2 41785  97.7744 190.7228 0009270 170.6672 189.4710 14.72284976522695
PATHFINDER 1            
1 41787U 16059E   26182.45360837  .00000701  00000+0  13061-3 0  9994
2 41787  97.8168 181.0861 0028962 158.0291 202.2163 14.67679797521801
SCATSAT 1               
1 41790U 16059H   26182.41552714  .00001448  00000+0  19619-3 0  9995
2 41790  98.1186 246.3283 0054185 200.8881 159.0117 14.79558524103697
GOKTURK 1A              
1 41875U 16073A   26182.67893475  .00000105  00000+0  29737-4 0  9997
2 41875  98.1240  77.1257 0001412  78.3710 281.7650 14.62783607510946
RESOURCESAT-2A          
1 41877U 16074A   26182.56954604  .00000101  00000+0  66149-4 0  9994
2 41877  98.7530 255.9564 0003098  55.9152 304.2319 14.21605097496347
CARTOSAT-2D             
1 41948U 17008A   26182.64844103  .00006391  00000+0  30569-3 0  9995
2 41948  97.4098 241.6848 0005166 177.5948 182.5312 15.19317886519777
SENTINEL-2B             
1 42063U 17013A   26182.54314294  .00000328  00000+0  14188-3 0  9995
2 42063  98.5695 257.1152 0001224  89.2304 270.9019 14.30821436486690
CARTOSAT-2E             
1 42767U 17036C   26182.60038072  .00005591  00000+0  26824-3 0  9992
2 42767  97.4269 242.1654 0002330 242.5200 117.5798 15.19277709500339
FORMOSAT-5              
1 42920U 17049A   26182.53517132  .00000156  00000+0  50457-4 0  9990
2 42920  98.2252 257.5261 0012213  44.2454 315.9716 14.50903884468751
SENTINEL-5P             
1 42969U 17064A   26182.44004197  .00000065  00000+0  51758-4 0  9996
2 42969  98.7927 124.4701 0001044  90.9514 269.1781 14.19521372451582
SKYSAT-C11              
1 42987U 17068A   26182.31355686  .00038089  00000+0  49649-3 0  9990
2 42987  97.4365 331.7671 0000489 144.4996 215.6292 15.58630990485440
SKYSAT-C10              
1 42988U 17068B   26182.37541620  .00011617  00000+0  34575-3 0  9992
2 42988  97.4524 319.3633 0001228 107.6822 252.4555 15.34876633484539
SKYSAT-C9               
1 42989U 17068C   26182.19346820  .00016913  00000+0  39911-3 0  9991
2 42989  97.4445 320.2490 0009438  89.2062 271.0266 15.41906433484914
SKYSAT-C8               
1 42990U 17068D   26182.12976844  .00012144  00000+0  33502-3 0  9993
2 42990  97.4541 318.9685 0001314  94.5977 265.5418 15.37245169484455
SKYSAT-C7               
1 42991U 17068E   26182.18891546  .00013045  00000+0  35993-3 0  9992
2 42991  97.4554 320.0187 0006758  66.0148 294.1803 15.37200956484521
SKYSAT-C6               
1 42992U 17068F   26182.30035593  .00011463  00000+0  34839-3 0  9999
2 42992  97.4588 320.0461 0005208 112.7079 247.4715 15.34206125484484
CARTOSAT-2F             
1 43111U 18004A   26182.63272019  .00007195  00000+0  34522-3 0  9992
2 43111  97.4784 242.1264 0001480 163.4345 196.6938 15.19182177469521
GAOFEN-1 02             
1 43259U 18031A   26182.59828998  .00000910  00000+0  13818-3 0  9996
2 43259  98.0523 245.0845 0002413 351.2569   8.8599 14.76455552444826
GAOFEN-1 03             
1 43260U 18031B   26182.64407199  .00000788  00000+0  12071-3 0  9993
2 43260  98.0511 244.9873 0003382  49.0496 311.1006 14.76446174444824
GAOFEN-1 04             
1 43262U 18031D   26182.61985154  .00001231  00000+0  18436-3 0  9999
2 43262  98.0525 245.1556 0001864  62.3455 297.7943 14.76456156444817
SENTINEL-3B             
1 43437U 18039A   26182.42607465  .00000137  00000+0  74495-4 0  9998
2 43437  98.6244 249.7537 0000816 116.8583 243.2681 14.26738871426151
GAOFEN-5 01             
1 43461U 18043A   26182.44775979  .00000363  00000+0  84699-4 0  9996
2 43461  98.4578 154.3340 0002753  57.9757 302.1710 14.60615470433770
GAOFEN-6                
1 43484U 18048A   26182.57383755 -.00000083  00000+0 -44470-5 0  9992
2 43484  98.0968 245.2430 0011818 119.7907 240.4480 14.76366587435511
