OBJECT_NAME,OBJECT_ID,EPOCH,MEAN_MOTION,ECCENTRICITY,INCLINATION,RA_OF_ASC_NODE,ARG_OF_PERICENTER,MEAN_ANOMALY,EPHEMERIS_TYPE,CLASSIFICATION_TYPE,NORAD_CAT_ID,ELEMENT_SET_NO,REV_AT_EPOCH,BSTAR,MEAN_MOTION_DOT,MEAN_MOTION_DDOT
SKYSAT-C1,2016-040C,2026-07-01T08:23:08.941920,15.36540688,.0001956,96.9551,213.3028,27.0572,333.0775,0,U,41601,999,56004,.32381521E-3,.11479E-3,0
LAPAN-A3,2016-040E,2026-07-01T14:46:02.218944,15.33197935,.00090728,97.1489,178.2877,333.8530,26.2254,0,U,41603,999,55702,.12353869E-3,.3891E-4,0
GAOFEN-3,2016-049A,2026-07-01T15:40:49.781280,14.42217052,.00016511,98.4005,190.2206,94.3638,265.7740,0,U,41727,999,52073,.5129008E-5,-.26E-6,0
SKYSAT-C4,2016-058B,2026-07-01T00:42:10.716480,15.49022400,.00025099,96.9165,203.2248,137.9147,222.2298,0,U,41771,999,54761,.38714061E-3,.20906E-3,0
SKYSAT-C5,2016-058C,2026-07-01T01:24:05.302080,15.34666451,.00017704,97.0459,222.0804,196.4961,163.6226,0,U,41772,999,54587,.29013893E-3,.9675E-4,0
SKYSAT-C2,2016-058D,2026-07-01T08:08:29.375232,15.42393028,.00032938,97.0157,203.9032,37.7377,322.4102,0,U,41773,999,54723,.38066554E-3,.16375E-3,0
SKYSAT-C3,2016-058E,2026-07-01T10:47:06.465696,15.53152571,.00014406,96.8999,212.7520,132.0836,228.0541,0,U,41774,999,54832,.43018002E-3,.2693E-3,0
ALSAT-1B,2016-059C,2026-07-01T13:55:47.361792,14.72284976,.00092708,97.7744,190.7228,170.6672,189.4710,0,U,41785,999,52269,.57476957E-4,.316E-5,0
PATHFINDER 1,2016-059E,2026-07-01T10:53:11.763168,14.67679797,.00289622,97.8168,181.0861,158.0291,202.2163,0,U,41787,999,52180,.1306139E-3,.701E-5,0
SCATSAT 1,2016-059H,2026-07-01T09:58:21.544896,14.79558524,.00541857,98.1186,246.3283,200.8881,159.0117,0,U,41790,999,10369,.19619333E-3,.1448E-4,0
GOKTURK 1A,2016-073A,2026-07-01T16:17:39.962400,14.62783607,.0001412,98.1240,77.1257,78.3710,281.7650,0,U,41875,999,51094,.29737296E-4,.105E-5,0
RESOURCESAT-2A,2016-074A,2026-07-01T13:40:08.777856,14.21605097,.00030982,98.7530,255.9564,55.9152,304.2319,0,U,41877,999,49634,.66148791E-4,.101E-5,0
CARTOSAT-2D,2017-008A,2026-07-01T15:33:45.304992,15.19317886,.00051665,97.4098,241.6848,177.5948,182.5312,0,U,41948,999,51977,.30568885E-3,.6391E-4,0
SENTINEL-2B,2017-013A,2026-07-01T13:02:07.550016,14.30821436,.00012247,98.5695,257.1152,89.2304,270.9019,0,U,42063,999,48669,.14187877E-3,.328E-5,0
CARTOSAT-2E,2017-036C,2026-07-01T14:24:32.894208,15.19277709,.00023306,97.4269,242.1654,242.5200,117.5798,0,U,42767,999,50033,.2682391E-3,.5591E-4,0
FORMOSAT-5,2017-049A,2026-07-01T12:50:38.802048,14.50903884,.00122132,98.2252,257.5261,44.2454,315.9716,0,U,42920,999,46875,.50457359E-4,.156E-5,0
SENTINEL-5P,2017-064A,2026-07-01T10:33:39.626208,14.19521372,.00010441,98.7927,124.4701,90.9514,269.1781,0,U,42969,999,45158,.51758051E-4,.65E-6,0
SKYSAT-C11,2017-068A,2026-07-01T07:31:31.312704,15.58630990,.00004894,97.4365,331.7671,144.4996,215.6292,0,U,42987,999,48544,.4964856E-3,.38089E-3,0
SKYSAT-C10,2017-068B,2026-07-01T09:00:35.959680,15.34876633,.00012284,97.4524,319.3633,107.6822,252.4555,0,U,42988,999,48453,.34574656E-3,.11617E-3,0
SKYSAT-C9,2017-068C,2026-07-01T04:38:35.652480,15.41906433,.00094389,97.4445,320.2490,89.2062,271.0266,0,U,42989,999,48491,.39911162E-3,.16913E-3,0
SKYSAT-C8,2017-068D,2026-07-01T03:06:51.993216,15.37245169,.00013144,97.4541,318.9685,94.5977,265.5418,0,U,42990,999,48445,.3350244E-3,.12144E-3,0
SKYSAT-C7,2017-068E,2026-07-01T04:32:02.295744,15.37200956,.00067582,97.4554,320.0187,66.0148,294.1803,0,U,42991,999,48452,.35992861E-3,.13045E-3,0
SKYSAT-C6,2017-068F,2026-07-01T07:12:30.752352,15.34206125,.00052086,97.4588,320.0461,112.7079,247.4715,0,U,42992,999,48448,.34838799E-3,.11463E-3,0
CARTOSAT-2F,2018-004A,2026-07-01T15:11:07.024416,15.19182177,.00014809,97.4784,242.1264,163.4345,196.6938,0,U,43111,999,46952,.3452217E-3,.7195E-4,0
GAOFEN-1 02,2018-031A,2026-07-01T14:21:32.254272,14.76455552,.00024131,98.0523,245.0845,351.2569,8.8599,0,U,43259,999,44482,.13817818E-3,.91E-5,0
GAOFEN-1 03,2018-031B,2026-07-01T15:27:27.819936,14.76446174,.00033822,98.0511,244.9873,49.0496,311.1006,0,U,43260,999,44482,.12071125E-3,.788E-5,0
GAOFEN-1 04,2018-031D,2026-07-01T14:52:35.173056,14.76456156,.00018647,98.0525,245.1556,62.3455,297.7943,0,U,43262,999,44481,.18435919E-3,.1231E-4,0
SENTINEL-3B,2018-039A,2026-07-01T10:13:32.849760,14.26738871,.00008165,98.6244,249.7537,116.8583,243.2681,0,U,43437,999,42615,.74495054E-4,.137E-5,0
GAOFEN-5 01,2018-043A,2026-07-01T10:44:46.445856,14.60615470,.00027532,98.4578,154.3340,57.9757,302.1710,0,U,43461,999,43377,.84698765E-4,.363E-5,0
GAOFEN-6,2018-048A,2026-07-01T13:46:19.564320,14.76366587,.00118189,98.0968,245.2430,119.7907,240.4480,0,U,43484,999,43551,-.4446977E-5,-.83E-6,0
